STARLINK-3321           
1 50803U 22001A   22030.91667824 -.00009863  00000+0 -65925-4 0  9999
2 50803  53.2150  80.1981 0001870  39.3461 236.6897 15.73200632  3736
STARLINK-3323           
1 50804U 22001B   22030.91667824 -.00597646  00000+0 -45264-2 0  9993
2 50804  53.2166  80.1973 0001854  28.1688 248.4919 15.73389738  3735
STARLINK-3333           
1 50805U 22001C   22030.91667824 -.00593412  00000+0 -44868-2 0  9990
2 50805  53.2167  80.1963 0001240  19.6426 257.6036 15.73421208  5081
STARLINK-3335           
1 50806U 22001D   22030.91667824 -.00005034  00000+0 -31488-4 0  9995
2 50806  53.2143  80.1922 0001803  37.7501 240.2173 15.73180107  3731
STARLINK-3353           
1 50807U 22001E   22030.91667824 -.00037257  00000+0 -26231-3 0  9997
2 50807  53.2152  80.1889 0001461  37.6436 242.8648 15.73190796  5080
STARLINK-3355           
1 50808U 22001F   22030.91667824  .00010109  00000+0  76432-4 0  9992
2 50808  53.2156  80.1924 0001998  22.5310 256.6884 15.73176566  5066
STARLINK-3232           
1 50809U 22001G   22030.91667824 -.00427349  00000+0 -31782-2 0  9990
2 50809  53.2155  80.1927 0001321  37.5285 241.0385 15.73342568  3739
STARLINK-3348           
1 50810U 22001H   22030.91667824 -.00010135  00000+0 -68005-4 0  9993
2 50810  53.2162  80.1886 0001586  38.6343 241.2510 15.73156140  3734
STARLINK-3347           
1 50811U 22001J   22030.91667824 -.00035445  00000+0 -24928-3 0  9990
2 50811  53.2152  80.1883 0001573  31.0251 250.1158 15.73191054  3732
STARLINK-3338           
1 50812U 22001K   22030.91667824  .00023385  00000+0  17091-3 0  9992
2 50812  53.2154  80.1854 0001935  23.3326 259.0913 15.73153356  3732
STARLINK-3349           
1 50813U 22001L   22030.91667824 -.00049330  00000+0 -34925-3 0  9998
2 50813  53.2151  80.1860 0001582  38.0705 243.7308 15.73190579  3735
STARLINK-3324           
1 50814U 22001M   22030.91667824 -.00042247  00000+0 -29817-3 0  9993
2 50814  53.2146  80.1781 0001472  34.9394 250.0415 15.73194316  3732
STARLINK-3234           
1 50815U 22001N   22030.48558171  .00034646  00000+0  25003-3 0  9995
2 50815  53.2134  82.3172 0001920  38.7603 321.3554 15.73220275  5014
STARLINK-3342           
1 50816U 22001P   22030.86584791  .00017334  00000+0  12761-3 0  9997
2 50816  53.2152  80.4243 0001921  45.5802 314.5375 15.73210013  3811
STARLINK-3341           
1 50817U 22001Q   22030.61252290  .00011075  00000+0  83132-4 0  9994
2 50817  53.2149  81.6862 0001818  49.3026 310.8152 15.73226066  3775
STARLINK-3336           
1 50818U 22001R   22030.86607464  .00020780  00000+0  15206-3 0  9998
2 50818  53.2155  80.4237 0002136  32.3700 327.7450 15.73207266  3815
STARLINK-3327           
1 50819U 22001S   22030.86622188 -.00008260  00000+0 -55077-4 0  9991
2 50819  53.2136  80.4241 0002204  47.8758 312.2449 15.72949535  3818
STARLINK-3339           
1 50820U 22001T   22030.86573917  .00002758  00000+0  24068-4 0  9998
2 50820  53.2147  80.4230 0002117  32.1348 327.9801 15.73203425  3812
STARLINK-3346           
1 50821U 22001U   22030.86528530  .00010620  00000+0  79938-4 0  9993
2 50821  53.2149  80.4202 0001789  36.4530 323.6611 15.73214935  3818
STARLINK-3343           
1 50822U 22001V   22030.86551179 -.00009823  00000+0 -65641-4 0  9990
2 50822  53.2161  80.4202 0002112  33.2431 326.8722 15.73198828  3819
STARLINK-3334           
1 50823U 22001W   22030.86652191  .00007173  00000+0  55442-4 0  9999
2 50823  53.2144  80.4275 0001910  24.2522 335.8588 15.73219395  3810
STARLINK-3340           
1 50824U 22001X   22030.86540358  .00018112  00000+0  13313-3 0  9996
2 50824  53.2157  80.4199 0002157  43.1944 316.9245 15.73210075  3818
STARLINK-3332           
1 50825U 22001Y   22030.86562103  .00003774  00000+0  31292-4 0  9994
2 50825  53.2147  80.4219 0002253  37.6966 322.4212 15.73211826  3811
STARLINK-3337           
1 50826U 22001Z   22030.86494477 -.00004396  00000+0 -26899-4 0  9993
2 50826  53.2140  80.4163 0001831  22.6556 337.4544 15.73209224  3816
STARLINK-3329           
1 50827U 22001AA  22030.86595860  .00000597  00000+0  86779-5 0  9993
2 50827  53.2142  80.4238 0001897  45.9930 314.1247 15.73204694  3816
STARLINK-3290           
1 50828U 22001AB  22030.86471543  .00011131  00000+0  83529-4 0  9990
2 50828  53.2159  80.4148 0001347  30.9433 329.1666 15.73225876  3813
STARLINK-3294           
1 50829U 22001AC  22030.86618189  .00027378  00000+0  19845-3 0  9999
2 50829  53.2144  80.4253 0002407  41.2576 318.8625 15.73245956  3817
STARLINK-3278           
1 50830U 22001AD  22030.86461506  .00008082  00000+0  61952-4 0  9998
2 50830  53.2157  80.4143 0002350  46.7174 313.4042 15.73200273  3819
STARLINK-3299           
1 50831U 22001AE  22030.86483264  .00009396  00000+0  71251-4 0  9996
2 50831  53.2142  80.4161 0002170  32.6559 327.4595 15.73213001  3816
STARLINK-3328           
1 50832U 22001AF  22030.86449506  .00005520  00000+0  43700-4 0  9991
2 50832  53.2161  80.4136 0001907  36.4754 323.6396 15.73212611  3819
STARLINK-3316           
1 50833U 22001AG  22030.86506199  .00004303  00000+0  35061-4 0  9993
2 50833  53.2149  80.4194 0001840  28.9759 331.1363 15.73201652  3818
STARLINK-3331           
1 50834U 22001AH  22030.86414679  .00018731  00000+0  13735-3 0  9998
2 50834  53.2144  80.4100 0002071  22.0274 338.0835 15.73239107  3811
STARLINK-3310           
1 50835U 22001AJ  22030.86392819 -.00007940  00000+0 -52173-4 0  9992
2 50835  53.2150  80.4107 0002055  28.4429 331.6703 15.73210657  3812
STARLINK-3330           
1 50836U 22001AK  22030.86427413  .00017482  00000+0  12862-3 0  9992
2 50836  53.2140  80.4121 0002238  32.9598 327.1561 15.73217012  3812
STARLINK-3318           
1 50837U 22001AL  22030.86516509  .00018481  00000+0  13567-3 0  9991
2 50837  53.2158  80.4178 0001575  37.8335 322.2796 15.73223854  3817
STARLINK-3322           
1 50838U 22001AM  22030.86325253 -.00004982  00000+0 -31085-4 0  9995
2 50838  53.2154  80.4041 0001400  22.9043 337.2040 15.73208093  3817
STARLINK-3320           
1 50839U 22001AN  22030.86358723 -.00000740  00000+0 -84957-6 0  9990
2 50839  53.2164  80.4076 0001658  17.7420 342.3658 15.73218116  3801
STARLINK-3295           
1 50840U 22001AP  22030.86347899  .00008277  00000+0  63255-4 0  9991
2 50840  53.2140  80.4059 0001783  42.3164 317.7993 15.73230326  3801
STARLINK-3300           
1 50841U 22001AQ  22030.86382444  .00015511  00000+0  11464-3 0  9990
2 50841  53.2137  80.4081 0001901  28.1854 331.9269 15.73218373  3816
STARLINK-3302           
1 50842U 22001AR  22030.86337057  .00014442  00000+0  10705-3 0  9990
2 50842  53.2146  80.4038 0001860  31.7243 328.3889 15.73220289  3801
STARLINK-3325           
1 50843U 22001AS  22030.86405014  .00009786  00000+0  74074-4 0  9995
2 50843  53.2158  80.4103 0002386  36.6424 323.4759 15.73198034  3812
STARLINK-3326           
1 50844U 22001AT  22030.86302678  .00015173  00000+0  11223-3 0  9991
2 50844  53.2156  80.4025 0002234  31.6829 328.4325 15.73220709  3819
STARLINK-3230           
1 50845U 22001AU  22030.86437372  .00010320  00000+0  77766-4 0  9996
2 50845  53.2137  80.4114 0002102  19.9421 340.1680 15.73228748  3815
STARLINK-3308           
1 50846U 22001AV  22030.86291441  .00003226  00000+0  27399-4 0  9996
2 50846  53.2150  80.4008 0002074  36.3813 323.7348 15.73204644  3816
STARLINK-3319           
1 50847U 22001AW  22030.86370581  .00002850  00000+0  24703-4 0  9998
2 50847  53.2148  80.4093 0001964  34.4164 325.6983 15.73219290  3812
STARLINK-3315           
1 50848U 22001AX  22030.86279780  .00004103  00000+0  33613-4 0  9991
2 50848  53.2139  80.4009 0001873  24.3565 335.7544 15.73219276  3811
STARLINK-3311           
1 50849U 22001AY  22030.86313760  .00007203  00000+0  55643-4 0  9990
2 50849  53.2153  80.4030 0001930  47.2402 312.8780 15.73225330  3816
STARLINK-3312           
1 50850U 22001AZ  22030.86255967  .00045002  00000+0  32515-3 0  9997
2 50850  53.2157  80.3991 0002108  21.2202 338.8905 15.73067753  4355
STARLINK-3314           
1 50851U 22001BA  22030.86268832  .00009384  00000+0  71111-4 0  9992
2 50851  53.2157  80.4005 0001621  33.1848 326.9274 15.73232714  3818
2022-002A               
1 50984U 22002A   22030.93715104  .00009478  00000+0  52594-3 0  9994
2 50984  97.5040 100.3562 0015136 166.9318 193.2309 15.13869201  2623
2022-002B               
1 50985U 22002B   22030.93778970  .00009319  00000+0  51798-3 0  9994
2 50985  97.5084 100.3671 0015422 169.6521 190.5031 15.13809715  2623
2022-002C               
1 50986U 22002C   22030.88552081  .00008551  00000+0  49299-3 0  9992
2 50986  97.5054 100.2745 0010875 173.2128 186.9252 15.12574308  2612
FOSSASAT-2E4            
1 50987U 22002D   22030.93793496  .00011534  00000+0  63982-3 0  9996
2 50987  97.5084 100.3665 0015239 169.9876 190.1662 15.13824741  2622
2022-002E               
1 50988U 22002E   22030.88596927  .00004235  00000+0  24689-3 0  9992
2 50988  97.5006 100.2614 0010320 170.5296 189.6131 15.12472885  2610
2022-002F               
1 50989U 22002F   22030.88652531  .00004199  00000+0  24517-3 0  9996
2 50989  97.5020 100.2628 0010409 169.4603 190.6848 15.12423911  2612
2022-002G               
1 50990U 22002G   22030.93781349  .00008631  00000+0  48015-3 0  9998
2 50990  97.5047 100.3563 0015152 165.8500 194.3159 15.13804403  2625
FOSSASAT-2E6            
1 50991U 22002H   22030.93961709  .00009776  00000+0  54571-3 0  9994
2 50991  97.5096 100.3682 0014909 171.5783 188.5701 15.13650528  2623
FLOCK 4X-8              
1 50992U 22002J   22030.88191828  .00002760  00000+0  16068-3 0  9991
2 50992  97.5065 100.2873 0011994 179.2208 180.9043 15.12809052  2610
ION SCV-004             
1 50993U 22002K   22030.88577528  .00008027  00000+0  46476-3 0  9995
2 50993  97.5056 100.2741 0011160 172.0445 188.0965 15.12435679  2616
FLOCK 4X-44             
